{
"type": "FeatureCollection",
"name": "rice_fields",
"crs": { "type": "name", "properties": { "name": "urn:ogc:def:crs:OGC:1.3:CRS84" } },
"features": [
{ "type": "Feature", "properties": { "field_id": "F001", "variety": "Koshihikari", "area_ha": 3.83, "transplant_date": "2025-05-17T00:00:00", "ndvi_peak": 0.67, "yield_tha": 5.65, "n_applied_kgha": 80.0, "soil_ph": 5.4 }, "geometry": { "type": "Polygon", "coordinates": [ [ [ 138.977372011653102, 37.945071430640994 ], [ 138.977372011653102, 37.946670089125192 ], [ 138.974908023769473, 37.946670089125192 ], [ 138.974908023769473, 37.945071430640994 ], [ 138.977372011653102, 37.945071430640994 ] ] ] } },
{ "type": "Feature", "properties": { "field_id": "F002", "variety": "Koshihikari", "area_ha": 4.61, "transplant_date": "2025-05-26T00:00:00", "ndvi_peak": 0.687, "yield_tha": 5.26, "n_applied_kgha": 91.0, "soil_ph": 5.8 }, "geometry": { "type": "Polygon", "coordinates": [ [ [ 139.032621692134313, 37.85564115790271 ], [ 139.032621692134313, 37.857579710611724 ], [ 139.030177694589781, 37.857579710611724 ], [ 139.030177694589781, 37.85564115790271 ], [ 139.032621692134313, 37.85564115790271 ] ] ] } },
{ "type": "Feature", "properties": { "field_id": "F003", "variety": "Koshihikari", "area_ha": 1.61, "transplant_date": "2025-05-28T00:00:00", "ndvi_peak": 0.668, "yield_tha": 6.05, "n_applied_kgha": 83.0, "soil_ph": 6.5 }, "geometry": { "type": "Polygon", "coordinates": [ [ [ 138.959524815760915, 37.911185289472236 ], [ 138.959524815760915, 37.912477434120774 ], [ 138.958245828039622, 37.912477434120774 ], [ 138.958245828039622, 37.911185289472236 ], [ 138.959524815760915, 37.911185289472236 ] ] ] } },
{ "type": "Feature", "properties": { "field_id": "F004", "variety": "Koshihikari", "area_ha": 3.33, "transplant_date": "2025-05-23T00:00:00", "ndvi_peak": 0.843, "yield_tha": 6.52, "n_applied_kgha": 78.0, "soil_ph": 5.3 }, "geometry": { "type": "Polygon", "coordinates": [ [ [ 138.995713193726772, 37.935994040673627 ], [ 138.995713193726772, 37.937444539925593 ], [ 138.993352578649592, 37.937444539925593 ], [ 138.993352578649592, 37.935994040673627 ], [ 138.995713193726772, 37.935994040673627 ] ] ] } },
{ "type": "Feature", "properties": { "field_id": "F005", "variety": "Koshihikari", "area_ha": 1.81, "transplant_date": "2025-05-28T00:00:00", "ndvi_peak": 0.728, "yield_tha": 4.96, "n_applied_kgha": 105.0, "soil_ph": 5.8 }, "geometry": { "type": "Polygon", "coordinates": [ [ [ 139.038090681772132, 37.894015249373957 ], [ 139.038090681772132, 37.895510426284069 ], [ 139.036846605302429, 37.895510426284069 ], [ 139.036846605302429, 37.894015249373957 ], [ 139.038090681772132, 37.894015249373957 ] ] ] } },
{ "type": "Feature", "properties": { "field_id": "F006", "variety": "Koshihikari", "area_ha": 1.9, "transplant_date": "2025-05-24T00:00:00", "ndvi_peak": 0.829, "yield_tha": 5.99, "n_applied_kgha": 115.0, "soil_ph": 5.3 }, "geometry": { "type": "Polygon", "coordinates": [ [ [ 138.942650959158556, 37.906770032781999 ], [ 138.942650959158556, 37.908612317556596 ], [ 138.941588332573644, 37.908612317556596 ], [ 138.941588332573644, 37.906770032781999 ], [ 138.942650959158556, 37.906770032781999 ] ] ] } },
{ "type": "Feature", "properties": { "field_id": "F007", "variety": "Koshihikari", "area_ha": 2.23, "transplant_date": "2025-05-19T00:00:00", "ndvi_peak": 0.767, "yield_tha": 6.91, "n_applied_kgha": 96.0, "soil_ph": 5.6 }, "geometry": { "type": "Polygon", "coordinates": [ [ [ 138.940847233145377, 37.854522728891055 ], [ 138.940847233145377, 37.855911406180745 ], [ 138.939196572483837, 37.855911406180745 ], [ 138.939196572483837, 37.854522728891055 ], [ 138.940847233145377, 37.854522728891055 ] ] ] } },
{ "type": "Feature", "properties": { "field_id": "F008", "variety": "Koshihikari", "area_ha": 1.43, "transplant_date": "2025-05-22T00:00:00", "ndvi_peak": 0.651, "yield_tha": 6.54, "n_applied_kgha": 102.0, "soil_ph": 6.1 }, "geometry": { "type": "Polygon", "coordinates": [ [ [ 138.960285973954313, 37.866526693906302 ], [ 138.960285973954313, 37.867950095387009 ], [ 138.959254701140821, 37.867950095387009 ], [ 138.959254701140821, 37.866526693906302 ], [ 138.960285973954313, 37.866526693906302 ] ] ] } },
{ "type": "Feature", "properties": { "field_id": "F009", "variety": "Hitomebore", "area_ha": 1.86, "transplant_date": "2025-05-22T00:00:00", "ndvi_peak": 0.74, "yield_tha": 4.74, "n_applied_kgha": 82.0, "soil_ph": 6.1 }, "geometry": { "type": "Polygon", "coordinates": [ [ [ 139.055971000794273, 37.85740446517341 ], [ 139.055971000794273, 37.858520334232935 ], [ 139.05425406933719, 37.858520334232935 ], [ 139.05425406933719, 37.85740446517341 ], [ 139.055971000794273, 37.85740446517341 ] ] ] } },
{ "type": "Feature", "properties": { "field_id": "F010", "variety": "Koshihikari", "area_ha": 2.35, "transplant_date": "2025-05-29T00:00:00", "ndvi_peak": 0.793, "yield_tha": 6.4, "n_applied_kgha": 94.0, "soil_ph": 6.2 }, "geometry": { "type": "Polygon", "coordinates": [ [ [ 139.034733914909481, 37.909129778770769 ], [ 139.034733914909481, 37.910691022196616 ], [ 139.033184471323494, 37.910691022196616 ], [ 139.033184471323494, 37.909129778770769 ], [ 139.034733914909481, 37.909129778770769 ] ] ] } },
{ "type": "Feature", "properties": { "field_id": "F011", "variety": "Koshihikari", "area_ha": 1.85, "transplant_date": "2025-05-29T00:00:00", "ndvi_peak": 0.829, "yield_tha": 5.69, "n_applied_kgha": 94.0, "soil_ph": 6.1 }, "geometry": { "type": "Polygon", "coordinates": [ [ [ 139.000614201309588, 37.902273282938197 ], [ 139.000614201309588, 37.903298702064937 ], [ 138.998759119272876, 37.903298702064937 ], [ 138.998759119272876, 37.902273282938197 ], [ 139.000614201309588, 37.902273282938197 ] ] ] } },
{ "type": "Feature", "properties": { "field_id": "F012", "variety": "Hitomebore", "area_ha": 2.43, "transplant_date": "2025-05-21T00:00:00", "ndvi_peak": 0.708, "yield_tha": 4.9, "n_applied_kgha": 116.0, "soil_ph": 6.3 }, "geometry": { "type": "Polygon", "coordinates": [ [ [ 138.929945973063781, 37.910441737927783 ], [ 138.929945973063781, 37.911644799152519 ], [ 138.927866290881184, 37.911644799152519 ], [ 138.927866290881184, 37.910441737927783 ], [ 138.929945973063781, 37.910441737927783 ] ] ] } },
{ "type": "Feature", "properties": { "field_id": "F013", "variety": "Hitomebore", "area_ha": 3.01, "transplant_date": "2025-05-25T00:00:00", "ndvi_peak": 0.715, "yield_tha": 4.81, "n_applied_kgha": 81.0, "soil_ph": 6.4 }, "geometry": { "type": "Polygon", "coordinates": [ [ [ 139.029288095455883, 37.937146059018772 ], [ 139.029288095455883, 37.938332629077657 ], [ 139.026680751302081, 37.938332629077657 ], [ 139.026680751302081, 37.937146059018772 ], [ 139.029288095455883, 37.937146059018772 ] ] ] } },
{ "type": "Feature", "properties": { "field_id": "F014", "variety": "Koshihikari", "area_ha": 1.32, "transplant_date": "2025-05-20T00:00:00", "ndvi_peak": 0.752, "yield_tha": 5.54, "n_applied_kgha": 73.0, "soil_ph": 5.4 }, "geometry": { "type": "Polygon", "coordinates": [ [ [ 138.95542749063091, 37.914769012054137 ], [ 138.95542749063091, 37.91612158091047 ], [ 138.954426449876934, 37.91612158091047 ], [ 138.954426449876934, 37.914769012054137 ], [ 138.95542749063091, 37.914769012054137 ] ] ] } },
{ "type": "Feature", "properties": { "field_id": "F015", "variety": "Akitakomachi", "area_ha": 2.43, "transplant_date": "2025-05-15T00:00:00", "ndvi_peak": 0.663, "yield_tha": 5.13, "n_applied_kgha": 75.0, "soil_ph": 6.1 }, "geometry": { "type": "Polygon", "coordinates": [ [ [ 138.969169440144782, 37.944290970391251 ], [ 138.969169440144782, 37.945809761012995 ], [ 138.967523034280731, 37.945809761012995 ], [ 138.967523034280731, 37.944290970391251 ], [ 138.969169440144782, 37.944290970391251 ] ] ] } },
{ "type": "Feature", "properties": { "field_id": "F016", "variety": "Hitomebore", "area_ha": 3.69, "transplant_date": "2025-05-26T00:00:00", "ndvi_peak": 0.66, "yield_tha": 5.2, "n_applied_kgha": 114.0, "soil_ph": 5.5 }, "geometry": { "type": "Polygon", "coordinates": [ [ [ 139.045449598954974, 37.864808692995339 ], [ 139.045449598954974, 37.866075474009612 ], [ 139.042454117984875, 37.866075474009612 ], [ 139.042454117984875, 37.864808692995339 ], [ 139.045449598954974, 37.864808692995339 ] ] ] } },
{ "type": "Feature", "properties": { "field_id": "F017", "variety": "Akitakomachi", "area_ha": 3.59, "transplant_date": "2025-05-25T00:00:00", "ndvi_peak": 0.724, "yield_tha": 5.11, "n_applied_kgha": 108.0, "soil_ph": 5.8 }, "geometry": { "type": "Polygon", "coordinates": [ [ [ 138.931950275326471, 37.898945276027753 ], [ 138.931950275326471, 37.900187331299264 ], [ 138.928978974418243, 37.900187331299264 ], [ 138.928978974418243, 37.898945276027753 ], [ 138.931950275326471, 37.898945276027753 ] ] ] } },
{ "type": "Feature", "properties": { "field_id": "F018", "variety": "Koshihikari", "area_ha": 4.6, "transplant_date": "2025-05-25T00:00:00", "ndvi_peak": 0.687, "yield_tha": 4.6, "n_applied_kgha": 95.0, "soil_ph": 6.1 }, "geometry": { "type": "Polygon", "coordinates": [ [ [ 139.099317491925405, 37.889882444244456 ], [ 139.099317491925405, 37.891680789369438 ], [ 139.096684628178963, 37.891680789369438 ], [ 139.096684628178963, 37.889882444244456 ], [ 139.099317491925405, 37.889882444244456 ] ] ] } },
{ "type": "Feature", "properties": { "field_id": "F019", "variety": "Koshihikari", "area_ha": 2.32, "transplant_date": "2025-05-15T00:00:00", "ndvi_peak": 0.73, "yield_tha": 5.79, "n_applied_kgha": 110.0, "soil_ph": 6.1 }, "geometry": { "type": "Polygon", "coordinates": [ [ [ 138.904770557335979, 37.90120930582993 ], [ 138.904770557335979, 37.902854478620341 ], [ 138.903317565785585, 37.902854478620341 ], [ 138.903317565785585, 37.90120930582993 ], [ 138.904770557335979, 37.90120930582993 ] ] ] } },
{ "type": "Feature", "properties": { "field_id": "F020", "variety": "Koshihikari", "area_ha": 3.44, "transplant_date": "2025-05-30T00:00:00", "ndvi_peak": 0.813, "yield_tha": 5.89, "n_applied_kgha": 92.0, "soil_ph": 5.5 }, "geometry": { "type": "Polygon", "coordinates": [ [ [ 139.049126119795829, 37.87090716207377 ], [ 139.049126119795829, 37.872602946473116 ], [ 139.047043223848164, 37.872602946473116 ], [ 139.047043223848164, 37.87090716207377 ], [ 139.049126119795829, 37.87090716207377 ] ] ] } }
]
}
